{"type": "FeatureCollection", "features": [ {"type": "Feature", "properties": {"norad_id": 66423, "name": "STARLINK-35618", "group": "last-30-days", "lat": -4.955516019542255, "lon": -68.850706003655, "alt_km": 415.1045268851185, "timestamp": "2025-12-02T17:49:10.799086+00:00", "meta": {"OBJECT_NAME": "STARLINK-35618", "OBJECT_ID": "2025-259B", "EPOCH": "2025-12-02T12:00:05.998752", "MEAN_MOTION": 15.50571396, "ECCENTRICITY": 0.0001356, "INCLINATION": 42.9993, "RA_OF_ASC_NODE": 107.2285, "ARG_OF_PERICENTER": 256.4345, "MEAN_ANOMALY": 15.9615, "EPHEMERIS_TYPE": 0, "CLASSIFICATION_TYPE": "U", "NORAD_CAT_ID": 66423, "ELEMENT_SET_NO": 999, "REV_AT_EPOCH": 463, "BSTAR": 0.00052811, "MEAN_MOTION_DOT": 0.00030753, "MEAN_MOTION_DDOT": 0}, "tle": {"line1": "1 66423U 25259B   25336.50006943  .00030753  00000+0  52811-3 0  9997", "line2": "2 66423  42.9993 107.2285 0001356 256.4345  15.9615 15.50571396  4630"}}, "geometry": {"type": "Point", "coordinates": [-68.850706003655, -4.955516019542255]}}, {"type": "Feature", "properties": {"norad_id": 66424, "name": "STARLINK-35588", "group": "last-30-days", "lat": -6.305043806261376, "lon": -67.38447829358657, "alt_km": 415.4411577813353, "timestamp": "2025-12-02T17:49:10.799096+00:00", "meta": {"OBJECT_NAME": "STARLINK-35588", "OBJECT_ID": "2025-259C", "EPOCH": "2025-12-02T12:00:05.998752", "MEAN_MOTION": 15.50579434, "ECCENTRICITY": 0.0001012, "INCLINATION": 42.9994, "RA_OF_ASC_NODE": 107.224, "ARG_OF_PERICENTER": 254.2467, "MEAN_ANOMALY": 20.1541, "EPHEMERIS_TYPE": 0, "CLASSIFICATION_TYPE": "U", "NORAD_CAT_ID": 66424, "ELEMENT_SET_NO": 999, "REV_AT_EPOCH": 463, "BSTAR": -0.0014723, "MEAN_MOTION_DOT": -0.00085771, "MEAN_MOTION_DDOT": 0}, "tle": {"line1": "1 66424U 25259C   25336.50006943 -.00085771  00000+0 -14723-2 0  9999", "line2": "2 66424  42.9994 107.2240 0001012 254.2467  20.1541 15.50579434  4630"}}, "geometry": {"type": "Point", "coordinates": [-67.38447829358657, -6.305043806261376]}}, {"type": "Feature", "properties": {"norad_id": 66425, "name": "STARLINK-35555", "group": "last-30-days", "lat": -7.555699305199206, "lon": -66.01689026006241, "alt_km": 415.50533403427926, "timestamp": "2025-12-02T17:49:10.799109+00:00", "meta": {"OBJECT_NAME": "STARLINK-35555", "OBJECT_ID": "2025-259D", "EPOCH": "2025-12-02T12:00:05.998752", "MEAN_MOTION": 15.50566254, "ECCENTRICITY": 0.000124, "INCLINATION": 42.9994, "RA_OF_ASC_NODE": 107.2178, "ARG_OF_PERICENTER": 262.8709, "MEAN_ANOMALY": 13.3729, "EPHEMERIS_TYPE": 0, "CLASSIFICATION_TYPE": "U", "NORAD_CAT_ID": 66425, "ELEMENT_SET_NO": 999, "REV_AT_EPOCH": 463, "BSTAR": 0.00031381, "MEAN_MOTION_DOT": 0.00018102, "MEAN_MOTION_DDOT": 0}, "tle": {"line1": "1 66425U 25259D   25336.50006943  .00018102  00000+0  31381-3 0  9992", "line2": "2 66425  42.9994 107.2178 0001240 262.8709  13.3729 15.50566254  4636"}}, "geometry": {"type": "Point", "coordinates": [-66.01689026006241, -7.555699305199206]}}, {"type": "Feature", "properties": {"norad_id": 66426, "name": "STARLINK-35589", "group": "last-30-days", "lat": -8.825482555985069, "lon": -64.61218882797007, "alt_km": 415.6212149995099, "timestamp": "2025-12-02T17:49:10.799119+00:00", "meta": {"OBJECT_NAME": "STARLINK-35589", "OBJECT_ID": "2025-259E", "EPOCH": "2025-12-02T12:00:05.998752", "MEAN_MOTION": 15.50518157, "ECCENTRICITY": 0.000129, "INCLINATION": 42.9993, "RA_OF_ASC_NODE": 107.2145, "ARG_OF_PERICENTER": 262.055, "MEAN_ANOMALY": 16.0995, "EPHEMERIS_TYPE": 0, "CLASSIFICATION_TYPE": "U", "NORAD_CAT_ID": 66426, "ELEMENT_SET_NO": 999, "REV_AT_EPOCH": 463, "BSTAR": 0.0017166, "MEAN_MOTION_DOT": 0.00101456, "MEAN_MOTION_DDOT": 0}, "tle": {"line1": "1 66426U 25259E   25336.50006943  .00101456  00000+0  17166-2 0  9992", "line2": "2 66426  42.9993 107.2145 0001290 262.0550  16.0995 15.50518157  4635"}}, "geometry": {"type": "Point", "coordinates": [-64.61218882797007, -8.825482555985069]}}, {"type": "Feature", "properties": {"norad_id": 66427, "name": "STARLINK-35611", "group": "last-30-days", "lat": -10.127161244968997, "lon": -63.158526228083836, "alt_km": 415.6188038365308, "timestamp": "2025-12-02T17:49:10.799131+00:00", "meta": {"OBJECT_NAME": "STARLINK-35611", "OBJECT_ID": "2025-259F", "EPOCH": "2025-12-02T12:00:05.998752", "MEAN_MOTION": 15.50563171, "ECCENTRICITY": 0.0001377, "INCLINATION": 42.9994, "RA_OF_ASC_NODE": 107.2087, "ARG_OF_PERICENTER": 257.0704, "MEAN_ANOMALY": 23.0021, "EPHEMERIS_TYPE": 0, "CLASSIFICATION_TYPE": "U", "NORAD_CAT_ID": 66427, "ELEMENT_SET_NO": 999, "REV_AT_EPOCH": 463, "BSTAR": 0.00043826, "MEAN_MOTION_DOT": 0.00025438, "MEAN_MOTION_DDOT": 0}, "tle": {"line1": "1 66427U 25259F   25336.50006943  .00025438  00000+0  43826-3 0  9991", "line2": "2 66427  42.9994 107.2087 0001377 257.0704  23.0021 15.50563171  4637"}}, "geometry": {"type": "Point", "coordinates": [-63.158526228083836, -10.127161244968997]}}, {"type": "Feature", "properties": {"norad_id": 66428, "name": "STARLINK-35610", "group": "last-30-days", "lat": -11.393111464125319, "lon": -61.72475077890775, "alt_km": 415.8117548510718, "timestamp": "2025-12-02T17:49:10.799141+00:00", "meta": {"OBJECT_NAME": "STARLINK-35610", "OBJECT_ID": "2025-259G", "EPOCH": "2025-12-02T12:00:05.998752", "MEAN_MOTION": 15.50520572, "ECCENTRICITY": 0.0001263, "INCLINATION": 42.9995, "RA_OF_ASC_NODE": 107.2045, "ARG_OF_PERICENTER": 259.3943, "MEAN_ANOMALY": 22.5961, "EPHEMERIS_TYPE": 0, "CLASSIFICATION_TYPE": "U", "NORAD_CAT_ID": 66428, "ELEMENT_SET_NO": 999, "REV_AT_EPOCH": 463, "BSTAR": 0.0017055, "MEAN_MOTION_DOT": 0.00100798, "MEAN_MOTION_DDOT": 0}, "tle": {"line1": "1 66428U 25259G   25336.50006943  .00100798  00000+0  17055-2 0  9999", "line2": "2 66428  42.9995 107.2045 0001263 259.3943  22.5961 15.50520572  4632"}}, "geometry": {"type": "Point", "coordinates": [-61.72475077890775, -11.393111464125319]}}, {"type": "Feature", "properties": {"norad_id": 66429, "name": "STARLINK-35533", "group": "last-30-days", "lat": -12.664167023976104, "lon": -60.26609303276319, "alt_km": 415.9116801887749, "timestamp": "2025-12-02T17:49:10.799151+00:00", "meta": {"OBJECT_NAME": "STARLINK-35533", "OBJECT_ID": "2025-259H", "EPOCH": "2025-12-02T12:00:05.998752", "MEAN_MOTION": 15.50518617, "ECCENTRICITY": 0.00013, "INCLINATION": 42.9994, "RA_OF_ASC_NODE": 107.1982, "ARG_OF_PERICENTER": 259.1942, "MEAN_ANOMALY": 24.7142, "EPHEMERIS_TYPE": 0, "CLASSIFICATION_TYPE": "U", "NORAD_CAT_ID": 66429, "ELEMENT_SET_NO": 999, "REV_AT_EPOCH": 463, "BSTAR": 0.0016928, "MEAN_MOTION_DOT": 0.00100028, "MEAN_MOTION_DDOT": 0}, "tle": {"line1": "1 66429U 25259H   25336.50006943  .00100028  00000+0  16928-2 0  9994", "line2": "2 66429  42.9994 107.1982 0001300 259.1942  24.7142 15.50518617  4632"}}, "geometry": {"type": "Point", "coordinates": [-60.26609303276319, -12.664167023976104]}}, {"type": "Feature", "properties": {"norad_id": 66430, "name": "STARLINK-35470", "group": "last-30-days", "lat": -13.916678961187827, "lon": -58.80286466820569, "alt_km": 416.010979752401, "timestamp": "2025-12-02T17:49:10.799166+00:00", "meta": {"OBJECT_NAME": "STARLINK-35470", "OBJECT_ID": "2025-259J", "EPOCH": "2025-12-02T12:00:05.998752", "MEAN_MOTION": 15.5053258, "ECCENTRICITY": 0.0001366, "INCLINATION": 42.9995, "RA_OF_ASC_NODE": 107.1943, "ARG_OF_PERICENTER": 259.5489, "MEAN_ANOMALY": 26.256, "EPHEMERIS_TYPE": 0, "CLASSIFICATION_TYPE": "U", "NORAD_CAT_ID": 66430, "ELEMENT_SET_NO": 999, "REV_AT_EPOCH": 463, "BSTAR": 0.0010376, "MEAN_MOTION_DOT": 0.00060904, "MEAN_MOTION_DDOT": 0}, "tle": {"line1": "1 66430U 25259J   25336.50006943  .00060904  00000+0  10376-2 0  9995", "line2": "2 66430  42.9995 107.1943 0001366 259.5489  26.2560 15.50532580  4630"}}, "geometry": {"type": "Point", "coordinates": [-58.80286466820569, -13.916678961187827]}}, {"type": "Feature", "properties": {"norad_id": 66431, "name": "STARLINK-35439", "group": "last-30-days", "lat": -15.16841722983709, "lon": -57.315839771309655, "alt_km": 416.0692590277249, "timestamp": "2025-12-02T17:49:10.799176+00:00", "meta": {"OBJECT_NAME": "STARLINK-35439", "OBJECT_ID": "2025-259K", "EPOCH": "2025-12-02T12:00:05.998752", "MEAN_MOTION": 15.50527308, "ECCENTRICITY": 0.0001355, "INCLINATION": 42.9994, "RA_OF_ASC_NODE": 107.1884, "ARG_OF_PERICENTER": 254.9521, "MEAN_ANOMALY": 32.7695, "EPHEMERIS_TYPE": 0, "CLASSIFICATION_TYPE": "U", "NORAD_CAT_ID": 66431, "ELEMENT_SET_NO": 999, "REV_AT_EPOCH": 463, "BSTAR": 0.0010022, "MEAN_MOTION_DOT": 0.00058786, "MEAN_MOTION_DDOT": 0}, "tle": {"line1": "1 66431U 25259K   25336.50006943  .00058786  00000+0  10022-2 0  9999", "line2": "2 66431  42.9994 107.1884 0001355 254.9521  32.7695 15.50527308  4631"}}, "geometry": {"type": "Point", "coordinates": [-57.315839771309655, -15.16841722983709]}}, {"type": "Feature", "properties": {"norad_id": 66432, "name": "STARLINK-35446", "group": "last-30-days", "lat": -16.418995846083327, "lon": -55.80021713603766, "alt_km": 416.10014161864456, "timestamp": "2025-12-02T17:49:10.799186+00:00", "meta": {"OBJECT_NAME": "STARLINK-35446", "OBJECT_ID": "2025-259L", "EPOCH": "2025-12-02T12:00:05.998752", "MEAN_MOTION": 15.50536666, "ECCENTRICITY": 0.0001455, "INCLINATION": 42.9996, "RA_OF_ASC_NODE": 107.1828, "ARG_OF_PERICENTER": 255.2952, "MEAN_ANOMALY": 34.3451, "EPHEMERIS_TYPE": 0, "CLASSIFICATION_TYPE": "U", "NORAD_CAT_ID": 66432, "ELEMENT_SET_NO": 999, "REV_AT_EPOCH": 463, "BSTAR": 0.0010043, "MEAN_MOTION_DOT": 0.00058934, "MEAN_MOTION_DDOT": 0}, "tle": {"line1": "1 66432U 25259L   25336.50006943  .00058934  00000+0  10043-2 0  9998", "line2": "2 66432  42.9996 107.1828 0001455 255.2952  34.3451 15.50536666  4630"}}, "geometry": {"type": "Point", "coordinates": [-55.80021713603766, -16.418995846083327]}}]}